start=new Date('2022-04-26T00:00:00.000Z').valueOf();
sats=[{"ECCENTRICITY":"0.00013500","ELEMENT_SET_NO":"999","BSTAR":"-0.01168100000000","LAUNCH_DATE":"2022-02-25","EPOCH":"2022-04-25T22:00:00.999936","MEAN_MOTION_DDOT":"0.0000000000000","COUNTRY_CODE":"US","MEAN_ELEMENT_THEORY":"SGP4","SEMIMAJOR_AXIS":"6781.740","REV_AT_EPOCH":"370","NORAD_CAT_ID":"51777","OBJECT_ID":"2022-017K","REF_FRAME":"TEME","ARG_OF_PERICENTER":"52.2920","INCLINATION":"53.2173","PERIOD":"92.634","CENTER_NAME":"EARTH","TIME_SYSTEM":"UTC","MEAN_MOTION_DOT":"-0.00716124","DECAY_DATE":null,"TLE_LINE1":"1 51777U 22017K   22115.91667824 -.00716124  00000-0 -11681-1 0  9994","MEAN_ANOMALY":"240.1404","OBJECT_NAME":"STARLINK-3625","RCS_SIZE":"LARGE","RA_OF_ASC_NODE":"211.0630","PERIAPSIS":"402.689","GP_ID":"202030603","TLE_LINE2":"2 51777  53.2173 211.0630 0001350  52.2920 240.1404 15.54501282  3700","OBJECT_TYPE":"PAYLOAD","EPHEMERIS_TYPE":"0","MEAN_MOTION":"15.54501282","FILE":"3416090","SITE":"AFWTR","CLASSIFICATION_TYPE":"U","APOAPSIS":"404.520"},{"MEAN_ELEMENT_THEORY":"SGP4","COUNTRY_CODE":"US","MEAN_MOTION_DDOT":"0.0000000000000","EPOCH":"2022-04-25T22:00:00.999936","BSTAR":"-0.00019650000000","LAUNCH_DATE":"2022-02-25","ELEMENT_SET_NO":"999","ECCENTRICITY":"0.00027780","PERIOD":"91.527","REF_FRAME":"TEME","INCLINATION":"53.2165","ARG_OF_PERICENTER":"21.3788","OBJECT_ID":"2022-017L","NORAD_CAT_ID":"51778","REV_AT_EPOCH":"370","SEMIMAJOR_AXIS":"6727.589","TLE_LINE2":"2 51778  53.2165 209.9424 0002778  21.3788 137.2729 15.73307389  3702","GP_ID":"202030006","RA_OF_ASC_NODE":"209.9424","PERIAPSIS":"347.585","RCS_SIZE":"LARGE","MEAN_ANOMALY":"137.2729","OBJECT_NAME":"STARLINK-3615","TLE_LINE1":"1 51778U 22017L   22115.91667824 -.00028241  00000-0 -19650-3 0  9997","DECAY_DATE":null,"CENTER_NAME":"EARTH","TIME_SYSTEM":"UTC","MEAN_MOTION_DOT":"-0.00028241","APOAPSIS":"351.323","SITE":"AFWTR","FILE":"3416090","CLASSIFICATION_TYPE":"U","MEAN_MOTION":"15.73307389","EPHEMERIS_TYPE":"0","OBJECT_TYPE":"PAYLOAD"},{"GP_ID":"202030519","TLE_LINE2":"2 51779  53.2174 211.0932 0001448  46.4167 248.4878 15.54514375  3707","RA_OF_ASC_NODE":"211.0932","PERIAPSIS":"402.585","RCS_SIZE":"LARGE","OBJECT_NAME":"STARLINK-3611","MEAN_ANOMALY":"248.4878","TLE_LINE1":"1 51779U 22017M   22115.91667824 -.00716121  00000-0 -11675-1 0  9996","DECAY_DATE":null,"CENTER_NAME":"EARTH","TIME_SYSTEM":"UTC","MEAN_MOTION_DOT":"-0.00716121","APOAPSIS":"404.549","SITE":"AFWTR","FILE":"3416090","CLASSIFICATION_TYPE":"U","MEAN_MOTION":"15.54514375","EPHEMERIS_TYPE":"0","OBJECT_TYPE":"PAYLOAD","MEAN_ELEMENT_THEORY":"SGP4","COUNTRY_CODE":"US","MEAN_MOTION_DDOT":"0.0000000000000","EPOCH":"2022-04-25T22:00:00.999936","LAUNCH_DATE":"2022-02-25","BSTAR":"-0.01167500000000","ELEMENT_SET_NO":"999","ECCENTRICITY":"0.00014480","PERIOD":"92.633","REF_FRAME":"TEME","INCLINATION":"53.2174","ARG_OF_PERICENTER":"46.4167","OBJECT_ID":"2022-017M","NORAD_CAT_ID":"51779","REV_AT_EPOCH":"370","SEMIMAJOR_AXIS":"6781.702"},{"MEAN_MOTION":"15.54523183","FILE":"3416090","SITE":"AFWTR","CLASSIFICATION_TYPE":"U","APOAPSIS":"404.484","OBJECT_TYPE":"PAYLOAD","EPHEMERIS_TYPE":"0","RCS_SIZE":"LARGE","RA_OF_ASC_NODE":"211.1195","PERIAPSIS":"402.598","GP_ID":"202030091","TLE_LINE2":"2 51780  53.2174 211.1195 0001391  49.0942 248.7351 15.54523183  3704","CENTER_NAME":"EARTH","MEAN_MOTION_DOT":"-0.00716043","TIME_SYSTEM":"UTC","DECAY_DATE":null,"TLE_LINE1":"1 51780U 22017N   22115.91667824 -.00716043  00000-0 -11670-1 0  9996","MEAN_ANOMALY":"248.7351","OBJECT_NAME":"STARLINK-3617","REF_FRAME":"TEME","INCLINATION":"53.2174","ARG_OF_PERICENTER":"49.0942","PERIOD":"92.633","SEMIMAJOR_AXIS":"6781.676","REV_AT_EPOCH":"370","NORAD_CAT_ID":"51780","OBJECT_ID":"2022-017N","MEAN_MOTION_DDOT":"0.0000000000000","COUNTRY_CODE":"US","MEAN_ELEMENT_THEORY":"SGP4","ECCENTRICITY":"0.00013910","ELEMENT_SET_NO":"999","LAUNCH_DATE":"2022-02-25","BSTAR":"-0.01167000000000","EPOCH":"2022-04-25T22:00:00.999936"},{"COUNTRY_CODE":"US","MEAN_ELEMENT_THEORY":"SGP4","MEAN_MOTION_DDOT":"0.0000000000000","LAUNCH_DATE":"2022-02-25","BSTAR":"-0.01167700000000","EPOCH":"2022-04-25T22:00:00.999936","ECCENTRICITY":"0.00015410","ELEMENT_SET_NO":"999","PERIOD":"92.633","INCLINATION":"53.2174","ARG_OF_PERICENTER":"41.5044","REF_FRAME":"TEME","NORAD_CAT_ID":"51781","OBJECT_ID":"2022-017P","SEMIMAJOR_AXIS":"6781.689","REV_AT_EPOCH":"370","PERIAPSIS":"402.509","RA_OF_ASC_NODE":"211.1033","TLE_LINE2":"2 51781  53.2174 211.1033 0001541  41.5044 254.2238 15.54518858  3702","GP_ID":"202030266","RCS_SIZE":"LARGE","TLE_LINE1":"1 51781U 22017P   22115.91667824 -.00716359  00000-0 -11677-1 0  9994","MEAN_ANOMALY":"254.2238","OBJECT_NAME":"STARLINK-3580","MEAN_MOTION_DOT":"-0.00716359","TIME_SYSTEM":"UTC","CENTER_NAME":"EARTH","DECAY_DATE":null,"APOAPSIS":"404.599","MEAN_MOTION":"15.54518858","CLASSIFICATION_TYPE":"U","SITE":"AFWTR","FILE":"3416090","OBJECT_TYPE":"PAYLOAD","EPHEMERIS_TYPE":"0"},{"MEAN_MOTION_DDOT":"0.0000000000000","MEAN_ELEMENT_THEORY":"SGP4","COUNTRY_CODE":"US","ELEMENT_SET_NO":"999","ECCENTRICITY":"0.00013490","EPOCH":"2022-04-25T22:00:00.999936","BSTAR":"-0.02952600000000","LAUNCH_DATE":"2022-02-25","INCLINATION":"53.2173","ARG_OF_PERICENTER":"54.7288","REF_FRAME":"TEME","PERIOD":"94.342","REV_AT_EPOCH":"367","SEMIMAJOR_AXIS":"6864.847","OBJECT_ID":"2022-017Q","NORAD_CAT_ID":"51782","RCS_SIZE":"LARGE","GP_ID":"202030343","TLE_LINE2":"2 51782  53.2173 216.5253 0001349  54.7288   2.3035 15.26358059  3674","PERIAPSIS":"485.786","RA_OF_ASC_NODE":"216.5253","DECAY_DATE":null,"TIME_SYSTEM":"UTC","MEAN_MOTION_DOT":"-0.00725249","CENTER_NAME":"EARTH","OBJECT_NAME":"STARLINK-3616","MEAN_ANOMALY":"2.3035","TLE_LINE1":"1 51782U 22017Q   22115.91667824 -.00725249  00000-0 -29526-1 0  9995","CLASSIFICATION_TYPE":"U","SITE":"AFWTR","FILE":"3416090","MEAN_MOTION":"15.26358059","APOAPSIS":"487.639","EPHEMERIS_TYPE":"0","OBJECT_TYPE":"PAYLOAD"},{"EPOCH":"2022-04-25T22:00:00.999936","LAUNCH_DATE":"2022-02-25","BSTAR":"-0.01167200000000","ELEMENT_SET_NO":"999","ECCENTRICITY":"0.00013490","MEAN_ELEMENT_THEORY":"SGP4","COUNTRY_CODE":"US","MEAN_MOTION_DDOT":"0.0000000000000","OBJECT_ID":"2022-017R","NORAD_CAT_ID":"51783","REV_AT_EPOCH":"370","SEMIMAJOR_AXIS":"6781.689","PERIOD":"92.633","INCLINATION":"53.2174","ARG_OF_PERICENTER":"53.2491","REF_FRAME":"TEME","OBJECT_NAME":"STARLINK-3628","MEAN_ANOMALY":"243.7564","TLE_LINE1":"1 51783U 22017R   22115.91667824 -.00716042  00000-0 -11672-1 0  9990","DECAY_DATE":null,"MEAN_MOTION_DOT":"-0.00716042","TIME_SYSTEM":"UTC","CENTER_NAME":"EARTH","GP_ID":"202030181","TLE_LINE2":"2 51783  53.2174 211.1125 0001349  53.2491 243.7564 15.54518831  3704","PERIAPSIS":"402.639","RA_OF_ASC_NODE":"211.1125","RCS_SIZE":"LARGE","EPHEMERIS_TYPE":"0","OBJECT_TYPE":"PAYLOAD","APOAPSIS":"404.469","CLASSIFICATION_TYPE":"U","SITE":"AFWTR","FILE":"3416090","MEAN_MOTION":"15.54518831"},{"OBJECT_TYPE":"PAYLOAD","EPHEMERIS_TYPE":"0","APOAPSIS":"487.449","MEAN_MOTION":"15.26485706","SITE":"AFWTR","FILE":"3416090","CLASSIFICATION_TYPE":"U","TLE_LINE1":"1 51784U 22017S   22115.91667824 -.00724968  00000-0 -29398-1 0  9991","MEAN_ANOMALY":"31.1772","OBJECT_NAME":"STARLINK-3632","CENTER_NAME":"EARTH","TIME_SYSTEM":"UTC","MEAN_MOTION_DOT":"-0.00724968","DECAY_DATE":null,"RA_OF_ASC_NODE":"216.5253","PERIAPSIS":"485.211","GP_ID":"202030429","TLE_LINE2":"2 51784  53.2172 216.5253 0001630  40.5666  31.1772 15.26485706  3679","RCS_SIZE":"LARGE","NORAD_CAT_ID":"51784","OBJECT_ID":"2022-017S","SEMIMAJOR_AXIS":"6864.465","REV_AT_EPOCH":"367","PERIOD":"94.334","REF_FRAME":"TEME","ARG_OF_PERICENTER":"40.5666","INCLINATION":"53.2172","BSTAR":"-0.02939800000000","LAUNCH_DATE":"2022-02-25","EPOCH":"2022-04-25T22:00:00.999936","ECCENTRICITY":"0.00016300","ELEMENT_SET_NO":"999","COUNTRY_CODE":"US","MEAN_ELEMENT_THEORY":"SGP4","MEAN_MOTION_DDOT":"0.0000000000000"},{"TIME_SYSTEM":"UTC","MEAN_MOTION_DOT":"-0.00716153","CENTER_NAME":"EARTH","DECAY_DATE":null,"TLE_LINE1":"1 51785U 22017T   22115.91667824 -.00716153  00000-0 -11670-1 0  9993","OBJECT_NAME":"STARLINK-3646","MEAN_ANOMALY":"250.9096","RCS_SIZE":"MEDIUM","PERIAPSIS":"402.560","RA_OF_ASC_NODE":"211.1209","GP_ID":"202030604","TLE_LINE2":"2 51785  53.2174 211.1209 0001429  47.7438 250.9096 15.54527438  3700","OBJECT_TYPE":"PAYLOAD","EPHEMERIS_TYPE":"0","MEAN_MOTION":"15.54527438","CLASSIFICATION_TYPE":"U","SITE":"AFWTR","FILE":"3416090","APOAPSIS":"404.498","ECCENTRICITY":"0.00014290","ELEMENT_SET_NO":"999","BSTAR":"-0.01167000000000","LAUNCH_DATE":"2022-02-25","EPOCH":"2022-04-25T22:00:00.999936","MEAN_MOTION_DDOT":"0.0000000000000","COUNTRY_CODE":"US","MEAN_ELEMENT_THEORY":"SGP4","SEMIMAJOR_AXIS":"6781.664","REV_AT_EPOCH":"370","NORAD_CAT_ID":"51785","OBJECT_ID":"2022-017T","ARG_OF_PERICENTER":"47.7438","INCLINATION":"53.2174","REF_FRAME":"TEME","PERIOD":"92.633"},{"DECAY_DATE":null,"MEAN_MOTION_DOT":"-0.00724365","TIME_SYSTEM":"UTC","CENTER_NAME":"EARTH","OBJECT_NAME":"STARLINK-3638","MEAN_ANOMALY":"51.4216","TLE_LINE1":"1 51786U 22017U   22115.91667824 -.00724365  00000-0 -29145-1 0  9994","RCS_SIZE":"MEDIUM","GP_ID":"202030007","TLE_LINE2":"2 51786  53.2172 216.5252 0001503  49.6301  51.4216 15.26741075  3677","PERIAPSIS":"484.533","RA_OF_ASC_NODE":"216.5252","EPHEMERIS_TYPE":"0","OBJECT_TYPE":"PAYLOAD","CLASSIFICATION_TYPE":"U","FILE":"3416090","SITE":"AFWTR","MEAN_MOTION":"15.26741075","APOAPSIS":"486.596","ELEMENT_SET_NO":"999","ECCENTRICITY":"0.00015030","EPOCH":"2022-04-25T22:00:00.999936","LAUNCH_DATE":"2022-02-25","BSTAR":"-0.02914500000000","MEAN_MOTION_DDOT":"0.0000000000000","MEAN_ELEMENT_THEORY":"SGP4","COUNTRY_CODE":"US","REV_AT_EPOCH":"367","SEMIMAJOR_AXIS":"6863.699","OBJECT_ID":"2022-017U","NORAD_CAT_ID":"51786","INCLINATION":"53.2172","ARG_OF_PERICENTER":"49.6301","REF_FRAME":"TEME","PERIOD":"94.319"}];
